$$SOE
2461302.500000000, A.D. 2026-Sep-19 00:00:00.0000, -4.326498705485380E+08, 2.249583595144628E+08, 1.118128214289653E+07,
2461309.500000000, A.D. 2026-Sep-26 00:00:00.0000, -4.364749941016710E+08, 2.163462295505187E+08, 1.295328939633207E+07,
2461316.500000000, A.D. 2026-Oct-03 00:00:00.0000, -4.401170722037973E+08, 2.076435954054324E+08, 1.471986014747679E+07,
2461323.500000000, A.D. 2026-Oct-10 00:00:00.0000, -4.435740533280656E+08, 1.988538515888692E+08, 1.648023482457063E+07,
2461330.500000000, A.D. 2026-Oct-17 00:00:00.0000, -4.468439348792102E+08, 1.899804410138514E+08, 1.823365156954859E+07,
2461337.500000000, A.D. 2026-Oct-24 00:00:00.0000, -4.499247642524957E+08, 1.810268550097876E+08, 1.997934633584756E+07,
2461344.500000000, A.D. 2026-Oct-31 00:00:00.0000, -4.528146398431665E+08, 1.719966331623224E+08, 2.171655296986636E+07,
2461351.500000000, A.D. 2026-Nov-07 00:00:00.0000, -4.555117116678830E+08, 1.628933630523038E+08, 2.344450325156692E+07,
2461358.500000000, A.D. 2026-Nov-14 00:00:00.0000, -4.580141813976674E+08, 1.537206807792188E+08, 2.516242694887317E+07,
2461365.500000000, A.D. 2026-Nov-21 00:00:00.0000, -4.603203036150706E+08, 1.444822729485975E+08, 2.686955210833266E+07,
2461372.500000000, A.D. 2026-Nov-28 00:00:00.0000, -4.624283892957289E+08, 1.351818771136572E+08, 2.856510542840345E+07,
2461379.500000000, A.D. 2026-Dec-05 00:00:00.0000, -4.643368078953992E+08, 1.258232800140238E+08, 3.024831233053309E+07,
2461386.500000000, A.D. 2026-Dec-12 00:00:00.0000, -4.660439878762042E+08, 1.164103167200425E+08, 3.191839696785825E+07,
2461393.500000000, A.D. 2026-Dec-19 00:00:00.0000, -4.675484175599172E+08, 1.069468706856108E+08, 3.357458234574185E+07,
2461400.500000000, A.D. 2026-Dec-26 00:00:00.0000, -4.688486464527455E+08, 9.743687383919746E+07, 3.521609049693370E+07,
2461407.500000000, A.D. 2027-Jan-02 00:00:00.0000, -4.699432867672279E+08, 8.788430652049908E+07, 3.684214267116363E+07,
2461414.500000000, A.D. 2027-Jan-09 00:00:00.0000, -4.708310150251251E+08, 7.829319728109193E+07, 3.845195953074583E+07,
2461421.500000000, A.D. 2027-Jan-16 00:00:00.0000, -4.715105737065135E+08, 6.866762255584577E+07, 4.004476135021845E+07,
2461428.500000000, A.D. 2027-Jan-23 00:00:00.0000, -4.719807728992569E+08, 5.901170616305320E+07, 4.161976821295061E+07,
2461435.500000000, A.D. 2027-Jan-30 00:00:00.0000, -4.722404917609981E+08, 4.932961858234195E+07, 4.317620018381601E+07,
2461442.500000000, A.D. 2027-Feb-06 00:00:00.0000, -4.722886793690624E+08, 3.962557634635508E+07, 4.471327744688582E+07,
2461449.500000000, A.D. 2027-Feb-13 00:00:00.0000, -4.721243554196465E+08, 2.990384276122141E+07, 4.623022055017789E+07,
2461456.500000000, A.D. 2027-Feb-20 00:00:00.0000, -4.717466131429198E+08, 2.016872916027288E+07, 4.772625090993617E+07,
2461463.500000000, A.D. 2027-Feb-27 00:00:00.0000, -4.711546230421061E+08, 1.042459347450171E+07, 4.920059118441195E+07,
2461470.500000000, A.D. 2027-Mar-06 00:00:00.0000, -4.703476344397708E+08, 6.758380413921885E+05, 5.065246539807943E+07,
2461477.500000000, A.D. 2027-Mar-13 00:00:00.0000, -4.693249764294887E+08, -9.073091300302539E+06, 5.208109913073586E+07,
2461484.500000000, A.D. 2027-Mar-20 00:00:00.0000, -4.680860593605302E+08, -1.881770566793418E+07, 5.348571980689216E+07,
2461491.500000000, A.D. 2027-Mar-27 00:00:00.0000, -4.666303766525545E+08, -2.855347369682191E+07, 5.486555702221386E+07,
2461498.500000000, A.D. 2027-Apr-03 00:00:00.0000, -4.649575067358218E+08, -3.827582225757554E+07, 5.621984288467595E+07,
2461505.500000000, A.D. 2027-Apr-10 00:00:00.0000, -4.630671150535561E+08, -4.798013730949661E+07, 5.754781236685844E+07,
2461512.500000000, A.D. 2027-Apr-17 00:00:00.0000, -4.609589561023464E+08, -5.766176490850902E+07, 5.884870366641459E+07,
2461519.500000000, A.D. 2027-Apr-24 00:00:00.0000, -4.586328754296631E+08, -6.731601243603174E+07, 6.012175856272317E+07,
2461526.500000000, A.D. 2027-May-01 00:00:00.0000, -4.560888112872897E+08, -7.693815002503243E+07, 6.136622274498593E+07,
2461533.500000000, A.D. 2027-May-08 00:00:00.0000, -4.533267956313751E+08, -8.652341143862069E+07, 6.258134614521527E+07,
2461540.500000000, A.D. 2027-May-15 00:00:00.0000, -4.503469559635314E+08, -9.606699345159237E+07, 6.376638349169498E+07,
2461547.500000000, A.D. 2027-May-22 00:00:00.0000, -4.471495195749066E+08, -1.055640563308928E+08, 6.492059501499304E+07,
2461554.500000000, A.D. 2027-May-29 00:00:00.0000, -4.437348168362653E+08, -1.150097268870374E+08, 6.604324687948297E+07,
2461561.500000000, A.D. 2027-Jun-05 00:00:00.0000, -4.401032826462718E+08, -1.243991009671633E+08, 6.713361151568344E+07,
2461568.500000000, A.D. 2027-Jun-12 00:00:00.0000, -4.362554580403637E+08, -1.337272449609801E+08, 6.819096807284507E+07,
2461575.500000000, A.D. 2027-Jun-19 00:00:00.0000, -4.321919922866490E+08, -1.429891972590937E+08, 6.921460294577822E+07,
2461582.500000000, A.D. 2027-Jun-26 00:00:00.0000, -4.279136451859278E+08, -1.521799699295393E+08, 7.020381032930674E+07,
2461589.500000000, A.D. 2027-Jul-03 00:00:00.0000, -4.234212894401171E+08, -1.612945506080723E+08, 7.115789278939109E+07,
2461596.500000000, A.D. 2027-Jul-10 00:00:00.0000, -4.187159130479016E+08, -1.703279045970064E+08, 7.207616184865031E+07,
2461603.500000000, A.D. 2027-Jul-17 00:00:00.0000, -4.137986216863438E+08, -1.792749772149710E+08, 7.295793858007039E+07,
2461610.500000000, A.D. 2027-Jul-24 00:00:00.0000, -4.086706409167783E+08, -1.881306964639106E+08, 7.380255418965043E+07,
2461617.500000000, A.D. 2027-Jul-31 00:00:00.0000, -4.033333177979719E+08, -1.968899757811764E+08, 7.460935056965357E+07,
2461624.500000000, A.D. 2027-Aug-07 00:00:00.0000, -3.977881221010499E+08, -2.055477157281002E+08, 7.537768093496087E+07,
2461631.500000000, A.D. 2027-Aug-14 00:00:00.0000, -3.920366494204666E+08, -2.140988048717221E+08, 7.610691073261878E+07,
2461638.500000000, A.D. 2027-Aug-21 00:00:00.0000, -3.860806255567092E+08, -2.225381232280644E+08, 7.679641849286652E+07,
2461645.500000000, A.D. 2027-Aug-28 00:00:00.0000, -3.799219087346276E+08, -2.308605470673225E+08, 7.744559640555333E+07,
2461652.500000000, A.D. 2027-Sep-04 00:00:00.0000, -3.735624908321388E+08, -2.390609525803895E+08, 7.805385093461145E+07,
2461659.500000000, A.D. 2027-Sep-11 00:00:00.0000, -3.670044990065295E+08, -2.471342190693128E+08, 7.862060354373035E+07,
2461666.500000000, A.D. 2027-Sep-18 00:00:00.0000, -3.602501975769151E+08, -2.550752323134790E+08, 7.914529146694161E+07,
2461673.500000000, A.D. 2027-Sep-25 00:00:00.0000, -3.533019899260495E+08, -2.628788881902527E+08, 7.962736849587083E+07,
2461680.500000000, A.D. 2027-Oct-02 00:00:00.0000, -3.461624203378798E+08, -2.705400965222867E+08, 8.006630577785639E+07,
2461687.500000000, A.D. 2027-Oct-09 00:00:00.0000, -3.388341757383040E+08, -2.780537851550383E+08, 8.046159262084159E+07,
2461694.500000000, A.D. 2027-Oct-16 00:00:00.0000, -3.313200872647277E+08, -2.854149043189230E+08, 8.081273729287720E+07,
2461701.500000000, A.D. 2027-Oct-23 00:00:00.0000, -3.236231313935214E+08, -2.926184312824165E+08, 8.111926779037476E+07,
2461708.500000000, A.D. 2027-Oct-30 00:00:00.0000, -3.157464302407939E+08, -2.996593746866135E+08, 8.138073258961049E+07,
2461715.500000000, A.D. 2027-Nov-06 00:00:00.0000, -3.076932521906937E+08, -3.065327774327800E+08, 8.159670157953274E+07,
2461722.500000000, A.D. 2027-Nov-13 00:00:00.0000, -2.994670148271171E+08, -3.132337201976841E+08, 8.176676718720643E+07,
2461729.500000000, A.D. 2027-Nov-20 00:00:00.0000, -2.910712872577124E+08, -3.197573277610497E+08, 8.189054525012290E+07,
2461736.500000000, A.D. 2027-Nov-27 00:00:00.0000, -2.825097902036050E+08, -3.260987751778234E+08, 8.196767572829531E+07,
2461743.500000000, A.D. 2027-Dec-04 00:00:00.0000, -2.737863958680719E+08, -3.322532928763182E+08, 8.199782351474714E+07,
2461750.500000000, A.D. 2027-Dec-11 00:00:00.0000, -2.649051281230424E+08, -3.382161716402944E+08, 8.198067931381927E+07,
2461757.500000000, A.D. 2027-Dec-18 00:00:00.0000, -2.558701627262866E+08, -3.439827678082802E+08, 8.191596053190568E+07,
2461764.500000000, A.D. 2027-Dec-25 00:00:00.0000, -2.466858274055104E+08, -3.495485086866974E+08, 8.180341216424000E+07,
2461771.500000000, A.D. 2028-Jan-01 00:00:00.0000, -2.373566017568945E+08, -3.549088981561431E+08, 8.164280767310989E+07,
$$EOE